{"epoch":1784710044,"count":18256,"objects":[{"id":"69767","name":"KUIPER-00589","type":"PAYLOAD","l1":"1 69767U 26151E   26202.58335648 -.00413563  00000-0 -12537-1 0  9997","l2":"2 69767  51.8758 149.5099 0005244 159.9301 335.8991 15.35268666  3639"},{"id":"69768","name":"KUIPER-00598","type":"PAYLOAD","l1":"1 69768U 26151F   26202.32327070 -.00009314  00000-0 -26430-3 0  9994","l2":"2 69768  51.8644 151.0384 0013588 180.2651 179.8330 15.34306434  2956"},{"id":"69769","name":"KUIPER-00604","type":"PAYLOAD","l1":"1 69769U 26151G   26202.54600838  .00020995  00000-0  55532-3 0  9996","l2":"2 69769  51.8795 149.5551 0002658 124.3751 235.7488 15.38353789  2997"},{"id":"69770","name":"KUIPER-00609","type":"PAYLOAD","l1":"1 69770U 26151H   26202.47592696  .00021570  00000-0  56302-3 0  9998","l2":"2 69770  51.8802 149.8366 0001396  51.1562 308.9549 15.38746070  2989"},{"id":"69771","name":"KUIPER-00611","type":"PAYLOAD","l1":"1 69771U 26151J   26202.34848881  .00013251  00000-0  35240-3 0  9990","l2":"2 69771  51.8802 150.4778 0001442 109.7062 250.4081 15.38550131  2963"},{"id":"69772","name":"KUIPER-00612","type":"PAYLOAD","l1":"1 69772U 26151K   26202.54973529  .00014015  00000-0  37820-3 0  9996","l2":"2 69772  51.8788 149.5808 0003711 135.4046 224.7240 15.38043835  2991"},{"id":"69773","name":"KUIPER-00614","type":"PAYLOAD","l1":"1 69773U 26151L   26202.35220419  .00021275  00000-0  56436-3 0  9999","l2":"2 69773  51.8795 150.5044 0002506 139.5848 220.5326 15.38255886  2967"},{"id":"69774","name":"KUIPER-00615","type":"PAYLOAD","l1":"1 69774U 26151M   26202.58335648  .00008172  00000-0  24219-3 0  9991","l2":"2 69774  51.8777 149.5281 0006299 168.2325 326.5799 15.35724285  1838"},{"id":"69775","name":"KUIPER-00616","type":"PAYLOAD","l1":"1 69775U 26151N   26202.47994501  .00022149  00000-0  58361-3 0  9994","l2":"2 69775  51.8784 149.8648 0002566 137.2660 222.8528 15.38437420  2988"},{"id":"69776","name":"KUIPER-00617","type":"PAYLOAD","l1":"1 69776U 26151P   26202.35652007  .00011569  00000-0  31575-3 0  9996","l2":"2 69776  51.8796 150.5344 0003891 154.2409 205.8772 15.37881422  2960"},{"id":"69777","name":"KUIPER-00619","type":"PAYLOAD","l1":"1 69777U 26151Q   26202.47713473  .00022184  00000-0  58044-3 0  9990","l2":"2 69777  51.8801 149.8415 0001796  81.3602 278.7589 15.38653535  2985"},{"id":"69778","name":"KUIPER-00621","type":"PAYLOAD","l1":"1 69778U 26151R   26202.41511207  .00019231  00000-0  50942-3 0  9994","l2":"2 69778  51.8800 150.1787 0001879 127.8496 232.2662 15.38367779  2979"},{"id":"69779","name":"KUIPER-00622","type":"PAYLOAD","l1":"1 69779U 26151S   26202.49658959  .00019980  00000-0  55201-3 0  9993","l2":"2 69779  51.8739 149.9713 0006158 167.2926 192.8217 15.37024267  2986"},{"id":"69780","name":"KUIPER-00623","type":"PAYLOAD","l1":"1 69780U 26151T   26202.55581064  .00031937  00000-0  86233-3 0  9999","l2":"2 69780  51.8780 149.6201 0004917 151.6612 208.4643 15.37468598  2990"},{"id":"69781","name":"KUIPER-00626","type":"PAYLOAD","l1":"1 69781U 26151U   26202.31871395 -.00012175  00000-0 -34644-3 0  9997","l2":"2 69781  51.8725 151.0200 0009978 185.7704 174.3168 15.34597724  2958"},{"id":"69782","name":"KUIPER-00627","type":"PAYLOAD","l1":"1 69782U 26151V   26202.32152931  .00012599  00000-0  38318-3 0  9997","l2":"2 69782  51.8699 151.0352 0010707 192.0125 168.0607 15.34349774  2955"}]}