{"fetched_at":"2026-07-22T07:09:20.374Z","source":"https://celestrak.org/NORAD/elements/gp.php?GROUP=kuiper&FORMAT=JSON","constellation":"kuiper","records":[{"OBJECT_NAME":"KUIPER-00589","OBJECT_ID":"2026-151E","EPOCH":"2026-07-21T14:00:01.999872","CLASSIFICATION_TYPE":"U","MEAN_MOTION":15.35268666,"ECCENTRICITY":0.00052436,"INCLINATION":51.8758,"RA_OF_ASC_NODE":149.5099,"ARG_OF_PERICENTER":159.9301,"MEAN_ANOMALY":335.8991,"EPHEMERIS_TYPE":0,"NORAD_CAT_ID":69767,"ELEMENT_SET_NO":999,"REV_AT_EPOCH":363,"BSTAR":-0.012536708,"MEAN_MOTION_DOT":-0.00413563,"MEAN_MOTION_DDOT":0},{"OBJECT_NAME":"KUIPER-00598","OBJECT_ID":"2026-151F","EPOCH":"2026-07-21T07:45:30.588480","CLASSIFICATION_TYPE":"U","MEAN_MOTION":15.34306434,"ECCENTRICITY":0.0013588,"INCLINATION":51.8644,"RA_OF_ASC_NODE":151.0384,"ARG_OF_PERICENTER":180.2651,"MEAN_ANOMALY":179.833,"EPHEMERIS_TYPE":0,"NORAD_CAT_ID":69768,"ELEMENT_SET_NO":999,"REV_AT_EPOCH":295,"BSTAR":-0.00026429661,"MEAN_MOTION_DOT":-0.00009314,"MEAN_MOTION_DDOT":0},{"OBJECT_NAME":"KUIPER-00604","OBJECT_ID":"2026-151G","EPOCH":"2026-07-21T13:06:15.124032","CLASSIFICATION_TYPE":"U","MEAN_MOTION":15.38353789,"ECCENTRICITY":0.00026584,"INCLINATION":51.8795,"RA_OF_ASC_NODE":149.5551,"ARG_OF_PERICENTER":124.3751,"MEAN_ANOMALY":235.7488,"EPHEMERIS_TYPE":0,"NORAD_CAT_ID":69769,"ELEMENT_SET_NO":999,"REV_AT_EPOCH":299,"BSTAR":0.00055532179,"MEAN_MOTION_DOT":0.00020995,"MEAN_MOTION_DDOT":0},{"OBJECT_NAME":"KUIPER-00609","OBJECT_ID":"2026-151H","EPOCH":"2026-07-21T11:25:20.089344","CLASSIFICATION_TYPE":"U","MEAN_MOTION":15.3874607,"ECCENTRICITY":0.00013962,"INCLINATION":51.8802,"RA_OF_ASC_NODE":149.8366,"ARG_OF_PERICENTER":51.1562,"MEAN_ANOMALY":308.9549,"EPHEMERIS_TYPE":0,"NORAD_CAT_ID":69770,"ELEMENT_SET_NO":999,"REV_AT_EPOCH":298,"BSTAR":0.00056301723,"MEAN_MOTION_DOT":0.0002157,"MEAN_MOTION_DDOT":0},{"OBJECT_NAME":"KUIPER-00611","OBJECT_ID":"2026-151J","EPOCH":"2026-07-21T08:21:49.433184","CLASSIFICATION_TYPE":"U","MEAN_MOTION":15.38550131,"ECCENTRICITY":0.00014423,"INCLINATION":51.8802,"RA_OF_ASC_NODE":150.4778,"ARG_OF_PERICENTER":109.7062,"MEAN_ANOMALY":250.4081,"EPHEMERIS_TYPE":0,"NORAD_CAT_ID":69771,"ELEMENT_SET_NO":999,"REV_AT_EPOCH":296,"BSTAR":0.00035239746,"MEAN_MOTION_DOT":0.00013251,"MEAN_MOTION_DDOT":0},{"OBJECT_NAME":"KUIPER-00612","OBJECT_ID":"2026-151K","EPOCH":"2026-07-21T13:11:37.129056","CLASSIFICATION_TYPE":"U","MEAN_MOTION":15.38043835,"ECCENTRICITY":0.00037113,"INCLINATION":51.8788,"RA_OF_ASC_NODE":149.5808,"ARG_OF_PERICENTER":135.4046,"MEAN_ANOMALY":224.724,"EPHEMERIS_TYPE":0,"NORAD_CAT_ID":69772,"ELEMENT_SET_NO":999,"REV_AT_EPOCH":299,"BSTAR":0.00037819812,"MEAN_MOTION_DOT":0.00014015,"MEAN_MOTION_DDOT":0},{"OBJECT_NAME":"KUIPER-00614","OBJECT_ID":"2026-151L","EPOCH":"2026-07-21T08:27:10.442016","CLASSIFICATION_TYPE":"U","MEAN_MOTION":15.38255886,"ECCENTRICITY":0.00025057,"INCLINATION":51.8795,"RA_OF_ASC_NODE":150.5044,"ARG_OF_PERICENTER":139.5848,"MEAN_ANOMALY":220.5326,"EPHEMERIS_TYPE":0,"NORAD_CAT_ID":69773,"ELEMENT_SET_NO":999,"REV_AT_EPOCH":296,"BSTAR":0.00056435677,"MEAN_MOTION_DOT":0.00021275,"MEAN_MOTION_DDOT":0},{"OBJECT_NAME":"KUIPER-00615","OBJECT_ID":"2026-151M","EPOCH":"2026-07-21T14:00:01.999872","CLASSIFICATION_TYPE":"U","MEAN_MOTION":15.35724285,"ECCENTRICITY":0.00062994,"INCLINATION":51.8777,"RA_OF_ASC_NODE":149.5281,"ARG_OF_PERICENTER":168.2325,"MEAN_ANOMALY":326.5799,"EPHEMERIS_TYPE":0,"NORAD_CAT_ID":69774,"ELEMENT_SET_NO":999,"REV_AT_EPOCH":183,"BSTAR":0.00024219066,"MEAN_MOTION_DOT":0.00008172,"MEAN_MOTION_DDOT":0},{"OBJECT_NAME":"KUIPER-00616","OBJECT_ID":"2026-151N","EPOCH":"2026-07-21T11:31:07.248864","CLASSIFICATION_TYPE":"U","MEAN_MOTION":15.3843742,"ECCENTRICITY":0.00025664,"INCLINATION":51.8784,"RA_OF_ASC_NODE":149.8648,"ARG_OF_PERICENTER":137.266,"MEAN_ANOMALY":222.8528,"EPHEMERIS_TYPE":0,"NORAD_CAT_ID":69775,"ELEMENT_SET_NO":999,"REV_AT_EPOCH":298,"BSTAR":0.00058361355,"MEAN_MOTION_DOT":0.00022149,"MEAN_MOTION_DDOT":0},{"OBJECT_NAME":"KUIPER-00617","OBJECT_ID":"2026-151P","EPOCH":"2026-07-21T08:33:23.334048","CLASSIFICATION_TYPE":"U","MEAN_MOTION":15.37881422,"ECCENTRICITY":0.00038913,"INCLINATION":51.8796,"RA_OF_ASC_NODE":150.5344,"ARG_OF_PERICENTER":154.2409,"MEAN_ANOMALY":205.8772,"EPHEMERIS_TYPE":0,"NORAD_CAT_ID":69776,"ELEMENT_SET_NO":999,"REV_AT_EPOCH":296,"BSTAR":0.00031575481,"MEAN_MOTION_DOT":0.00011569,"MEAN_MOTION_DDOT":0},{"OBJECT_NAME":"KUIPER-00619","OBJECT_ID":"2026-151Q","EPOCH":"2026-07-21T11:27:04.440672","CLASSIFICATION_TYPE":"U","MEAN_MOTION":15.38653535,"ECCENTRICITY":0.00017956,"INCLINATION":51.8801,"RA_OF_ASC_NODE":149.8415,"ARG_OF_PERICENTER":81.3602,"MEAN_ANOMALY":278.7589,"EPHEMERIS_TYPE":0,"NORAD_CAT_ID":69777,"ELEMENT_SET_NO":999,"REV_AT_EPOCH":298,"BSTAR":0.00058043601,"MEAN_MOTION_DOT":0.00022184,"MEAN_MOTION_DDOT":0},{"OBJECT_NAME":"KUIPER-00621","OBJECT_ID":"2026-151R","EPOCH":"2026-07-21T09:57:45.682848","CLASSIFICATION_TYPE":"U","MEAN_MOTION":15.38367779,"ECCENTRICITY":0.00018786,"INCLINATION":51.88,"RA_OF_ASC_NODE":150.1787,"ARG_OF_PERICENTER":127.8496,"MEAN_ANOMALY":232.2662,"EPHEMERIS_TYPE":0,"NORAD_CAT_ID":69778,"ELEMENT_SET_NO":999,"REV_AT_EPOCH":297,"BSTAR":0.00050942021,"MEAN_MOTION_DOT":0.00019231,"MEAN_MOTION_DDOT":0},{"OBJECT_NAME":"KUIPER-00622","OBJECT_ID":"2026-151S","EPOCH":"2026-07-21T11:55:05.340576","CLASSIFICATION_TYPE":"U","MEAN_MOTION":15.37024267,"ECCENTRICITY":0.00061583,"INCLINATION":51.8739,"RA_OF_ASC_NODE":149.9713,"ARG_OF_PERICENTER":167.2926,"MEAN_ANOMALY":192.8217,"EPHEMERIS_TYPE":0,"NORAD_CAT_ID":69779,"ELEMENT_SET_NO":999,"REV_AT_EPOCH":298,"BSTAR":0.00055201091,"MEAN_MOTION_DOT":0.0001998,"MEAN_MOTION_DDOT":0},{"OBJECT_NAME":"KUIPER-00623","OBJECT_ID":"2026-151T","EPOCH":"2026-07-21T13:20:22.039296","CLASSIFICATION_TYPE":"U","MEAN_MOTION":15.37468598,"ECCENTRICITY":0.00049171,"INCLINATION":51.878,"RA_OF_ASC_NODE":149.6201,"ARG_OF_PERICENTER":151.6612,"MEAN_ANOMALY":208.4643,"EPHEMERIS_TYPE":0,"NORAD_CAT_ID":69780,"ELEMENT_SET_NO":999,"REV_AT_EPOCH":299,"BSTAR":0.00086233457,"MEAN_MOTION_DOT":0.00031937,"MEAN_MOTION_DDOT":0},{"OBJECT_NAME":"KUIPER-00626","OBJECT_ID":"2026-151U","EPOCH":"2026-07-21T07:38:56.885280","CLASSIFICATION_TYPE":"U","MEAN_MOTION":15.34597724,"ECCENTRICITY":0.00099776,"INCLINATION":51.8725,"RA_OF_ASC_NODE":151.02,"ARG_OF_PERICENTER":185.7704,"MEAN_ANOMALY":174.3168,"EPHEMERIS_TYPE":0,"NORAD_CAT_ID":69781,"ELEMENT_SET_NO":999,"REV_AT_EPOCH":295,"BSTAR":-0.0003464374,"MEAN_MOTION_DOT":-0.00012175,"MEAN_MOTION_DDOT":0},{"OBJECT_NAME":"KUIPER-00627","OBJECT_ID":"2026-151V","EPOCH":"2026-07-21T07:43:00.132384","CLASSIFICATION_TYPE":"U","MEAN_MOTION":15.34349774,"ECCENTRICITY":0.0010707,"INCLINATION":51.8699,"RA_OF_ASC_NODE":151.0352,"ARG_OF_PERICENTER":192.0125,"MEAN_ANOMALY":168.0607,"EPHEMERIS_TYPE":0,"NORAD_CAT_ID":69782,"ELEMENT_SET_NO":999,"REV_AT_EPOCH":295,"BSTAR":0.00038317959,"MEAN_MOTION_DOT":0.00012599,"MEAN_MOTION_DDOT":0}]}
